[ {"name": "STARLINK-1522", "line1": "1 46027U 20055A   26138.80746654  .00013102  00000+0  76573-3 0  9998", "line2": "2 46027  53.0604 169.6631 0002695 354.7450   5.3513 15.12204095319482"}, {"name": "STARLINK-1523", "line1": "1 46028U 20055B   26138.34375564  .00002367  00000+0  92035-4 0  9999", "line2": "2 46028  53.1604 163.1675 0001135  86.6499 273.4631 15.30193716319568"}, {"name": "STARLINK-1526", "line1": "1 46029U 20055C   26138.79464741  .00008935  00000+0  31381-3 0  9998", "line2": "2 46029  53.1607 161.0837 0001432  99.8947 260.2216 15.30159593319628"}, {"name": "STARLINK-1555", "line1": "1 46032U 20055F   26138.77884727 -.00000428  00000+0 -23268-5 0  9998", "line2": "2 46032  53.1604 161.1403 0001310  87.9905 272.1246 15.30191099319628"}, {"name": "STARLINK-1556", "line1": "1 46033U 20055G   26138.37010145 -.00003239  00000+0 -97341-4 0  9995", "line2": "2 46033  53.1576 163.0543 0001253  77.3467 282.7674 15.30180259319533"}, {"name": "STARLINK-1557", "line1": "1 46034U 20055H   26138.24261633 -.00000371  00000+0 -41221-6 0  9994", "line2": "2 46034  53.1597 163.6428 0001224  82.2500 277.8640 15.30200635319513"}, {"name": "STARLINK-1558", "line1": "1 46035U 20055J   26138.77251152 -.00000860  00000+0 -16932-4 0  9990", "line2": "2 46035  53.1600 161.1809 0001272  81.5614 278.5532 15.30193765319621"}, {"name": "STARLINK-1560", "line1": "1 46036U 20055K   26138.75881481  .00000433  00000+0  26728-4 0  9991", "line2": "2 46036  53.1592 161.2535 0001047  93.5766 266.5354 15.30200309319622"}, {"name": "STARLINK-1569", "line1": "1 46039U 20055N   26138.44909617  .00000493  00000+0  28782-4 0  9990", "line2": "2 46039  53.1605 162.6746 0001295  90.1248 269.9901 15.30197848319563"}, {"name": "STARLINK-1582", "line1": "1 46043U 20055S   26138.35592551  .00001713  00000+0  66939-4 0  9992", "line2": "2 46043  53.1577 162.7336 0001225  86.5617 273.5525 15.31710425319559"}, {"name": "STARLINK-1591", "line1": "1 46045U 20055U   26138.35112438  .00000498  00000+0  28924-4 0  9997", "line2": "2 46045  53.1598 163.1351 0001232  85.0289 275.0853 15.30202242319534"}, {"name": "STARLINK-1524", "line1": "1 46047U 20055W   26138.45576121 -.00000691  00000+0 -10490-4 0  9999", "line2": "2 46047  53.1604 149.5655 0001108  83.2973 276.8155 15.31708211319757"}, {"name": "STARLINK-1527", "line1": "1 46048U 20055X   26138.45108322  .00001132  00000+0  48225-4 0  9990", "line2": "2 46048  53.1603 149.5691 0001147  86.6278 273.4854 15.31716391319729"}, {"name": "STARLINK-1540", "line1": "1 46051U 20055AA  26138.91668981  .00047987  00000+0  15492-2 0  9993", "line2": "2 46051  53.1606 147.6076 0001288  90.2452  35.6339 15.31678222  5866"}, {"name": "STARLINK-1541", "line1": "1 46052U 20055AB  26138.89969628  .00095398  00000+0  55722-3 0  9993", "line2": "2 46052  53.1592 138.5745 0002123  79.0469 281.0791 15.77644832319929"}, {"name": "STARLINK-1543", "line1": "1 46053U 20055AC  26138.34389281  .00000228  00000+0  19130-4 0  9997", "line2": "2 46053  53.1601 150.0831 0001563  81.0282 279.0896 15.31707064319749"}, {"name": "STARLINK-1548", "line1": "1 46054U 20055AD  26138.74939047 -.00002023  00000+0 -53411-4 0  9990", "line2": "2 46054  53.1584 148.2699 0002530  87.5772 272.5519 15.31702970319809"}, {"name": "STARLINK-1554", "line1": "1 46055U 20055AE  26138.40448465  .00001427  00000+0  57718-4 0  9992", "line2": "2 46055  53.1576 149.8186 0001389  91.8831 268.2329 15.31711215319751"}, {"name": "STARLINK-1564", "line1": "1 46058U 20055AH  26138.76570180  .00000643  00000+0  33854-4 0  9998", "line2": "2 46058  53.1581 148.8731 0001479  59.2808 300.8338 15.30202164319791"}, {"name": "STARLINK-1570", "line1": "1 46059U 20055AJ  26138.75868658  .00000934  00000+0  41852-4 0  9998", "line2": "2 46059  53.1596 148.0535 0001382  87.5826 272.5334 15.31696373319767"}, {"name": "STARLINK-1572", "line1": "1 46060U 20055AK  26138.74670579 -.00000144  00000+0  72561-5 0  9998", "line2": "2 46060  53.1599 148.7082 0001299  84.0664 276.0485 15.30192983319768"}, {"name": "STARLINK-1573", "line1": "1 46061U 20055AL  26138.74470188 -.00000673  00000+0 -99099-5 0  9996", "line2": "2 46061  53.1591 148.0858 0001324  95.7821 264.3331 15.31696631319803"}, {"name": "STARLINK-1577", "line1": "1 46063U 20055AN  26138.44641900 -.00000862  00000+0 -16007-4 0  9994", "line2": "2 46063  53.1594 149.4711 0001211  82.7019 277.4120 15.31701249319758"}, {"name": "STARLINK-1583", "line1": "1 46064U 20055AP  26138.44957699  .00001425  00000+0  60235-4 0  9996", "line2": "2 46064  53.1597 149.8362 0001576  88.1813 271.9368 15.30209177319748"}, {"name": "STARLINK-1536", "line1": "1 46070U 20055AV  26138.26599398  .00001304  00000+0  53762-4 0  9994", "line2": "2 46070  53.1598 138.1964 0001263  87.4627 272.6519 15.31710103319892"}, {"name": "STARLINK-1542", "line1": "1 46073U 20055AY  26138.29037722  .00000369  00000+0  23665-4 0  9997", "line2": "2 46073  53.1596 141.0482 0001144  89.7516 270.3616 15.31701276319840"}, {"name": "STARLINK-1549", "line1": "1 46074U 20055AZ  26138.40270216  .00019810  00000+0  73243-3 0  9995", "line2": "2 46074  53.0497 137.4621 0003846  42.0542 318.0751 15.27722053319892"}, {"name": "STARLINK-1551", "line1": "1 46075U 20055BA  26138.69132962  .00000477  00000+0  28239-4 0  9997", "line2": "2 46075  53.1598 135.9125 0001214 113.7726 246.3402 15.30199423319951"}, {"name": "STARLINK-1552", "line1": "1 46076U 20055BB  26138.69972917  .00001527  00000+0  60949-4 0  9991", "line2": "2 46076  53.1581 135.6952 0001443  85.8913 274.2253 15.31714532319948"}, {"name": "STARLINK-1559", "line1": "1 46077U 20055BC  26138.89955324  .00041835  00000+0  11706-2 0  9998", "line2": "2 46077  53.0238 105.3388 0003127  39.4266 320.6963 15.36262319320358"}, {"name": "STARLINK-1566", "line1": "1 46079U 20055BE  26138.70436877 -.00000279  00000+0  27859-5 0  9994", "line2": "2 46079  53.1609 135.5267 0001343  96.5462 263.5693 15.31698639319967"}, {"name": "STARLINK-1568", "line1": "1 46080U 20055BF  26138.48039658  .00026391  00000+0  43303-3 0  9999", "line2": "2 46080  53.0589  58.4565 0004505  36.6151 323.5166 15.52267375321015"}, {"name": "STARLINK-1578", "line1": "1 46082U 20055BH  26138.38250205 -.00000277  00000+0  28469-5 0  9997", "line2": "2 46082  53.1605 137.5445 0001534  79.3437 280.7737 15.31703795319904"}, {"name": "STARLINK-1579", "line1": "1 46083U 20055BJ  26138.69506156  .00001429  00000+0  57793-4 0  9991", "line2": "2 46083  53.1611 135.6235 0001250  80.2128 279.9015 15.31698668319957"}, {"name": "STARLINK-1622", "line1": "1 46128U 20057M   26138.55165876  .00090578  00000+0  51992-3 0  9995", "line2": "2 46128  53.0181 238.0735 0005743 357.7143   2.3849 15.78035472318345"}, {"name": "STARLINK-1623", "line1": "1 46129U 20057N   26138.66056153  .00068224  00000+0  54671-3 0  9995", "line2": "2 46129  53.0437 274.3870 0002699 324.5510  35.5327 15.70427588317859"}, {"name": "STARLINK-1624", "line1": "1 46130U 20057P   26138.84672404  .00593602  18043-3  82425-3 0  9991", "line2": "2 46130  53.0285 239.1821 0012897 324.8989  35.1192 16.05239832319604"}, {"name": "STARLINK-1596", "line1": "1 46141U 20057AA  26138.62107095  .00058525  00000+0  82843-3 0  9992", "line2": "2 46141  53.0361 254.9013 0004754 320.6390  39.4274 15.55950178318123"}, {"name": "STARLINK-1597", "line1": "1 46142U 20057AB  26138.50632527  .00065958  00000+0  53693-3 0  9992", "line2": "2 46142  53.0444 314.8563 0001732  52.5365 307.5809 15.70064975317263"}, {"name": "STARLINK-1606", "line1": "1 46144U 20057AD  26138.91668981  .00100215  00000+0  48589-3 0  9996", "line2": "2 46144  53.0375 267.8612 0005274 297.3751  56.6691 15.81706813  5882"}, {"name": "STARLINK-1608", "line1": "1 46146U 20057AF  26138.27621471  .00025165  00000+0  76373-3 0  9992", "line2": "2 46146  53.1592 345.4483 0001141 210.3105 149.7831 15.33970143316849"}, {"name": "STARLINK-1667", "line1": "1 46155U 20057AQ  26138.91668981  .00072725  00000+0  35791-3 0  9993", "line2": "2 46155  53.0145 236.0923 0007184 355.9799 345.5780 15.81492319  5946"}, {"name": "STARLINK-1545", "line1": "1 46156U 20057AR  26138.09333627  .00125375  00000+0  76372-3 0  9999", "line2": "2 46156  53.0389 275.6238 0002853 263.6512  96.4182 15.76575531319039"}, {"name": "STARLINK-1595", "line1": "1 46159U 20057AU  26138.51310747  .00057187  00000+0  50074-3 0  9993", "line2": "2 46159  53.0431 317.2861 0000817  27.6913 332.4146 15.68352672318498"}, {"name": "STARLINK-1598", "line1": "1 46160U 20057AV  26138.86856576  .00060659  00000+0  52898-3 0  9992", "line2": "2 46160  53.0457 301.6716 0004168 136.2258 223.9089 15.68419982318731"}, {"name": "STARLINK-1626", "line1": "1 46167U 20057BC  26137.90670422  .00063020  00000+0  55012-3 0  9993", "line2": "2 46167  53.0423 315.9359 0000622 124.1931 235.9144 15.68387648317206"}, {"name": "STARLINK-1627", "line1": "1 46168U 20057BD  26138.82078573  .00853845  43423-3  76950-3 0  9991", "line2": "2 46168  53.0259 229.4669 0014567 334.5852  25.4464 16.11888225318483"}, {"name": "STARLINK-1633", "line1": "1 46171U 20057BG  26138.91668981  .00008488  00000+0  59310-4 0  9990", "line2": "2 46171  53.0362 273.1326 0004513 243.9956 194.8591 15.75308217  5938"}, {"name": "STARLINK-1635", "line1": "1 46172U 20057BH  26138.91668981  .00086060  00000+0  55224-3 0  9992", "line2": "2 46172  53.0383 271.1532 0005934 262.4300  19.1614 15.75531477  5971"}, {"name": "STARLINK-1640", "line1": "1 46173U 20057BJ  26138.92710758  .00064806  00000+0  57610-3 0  9999", "line2": "2 46173  53.0439 316.2189 0000906  31.4185 328.6885 15.67929984317285"}, {"name": "STARLINK-1641", "line1": "1 46174U 20057BK  26138.52327980  .00027847  00000+0  39565-3 0  9990", "line2": "2 46174  53.0475 308.1668 0003177 172.2471 187.8589 15.56206705317365"}, {"name": "STARLINK-1654", "line1": "1 46326U 20062B   26138.91668981  .00258923  35549-4  85921-3 0  9996", "line2": "2 46326  53.0357 342.0611 0006776 208.6233 350.0568 15.89865523  6019"}]